0 COSMOS 2251 DEB
1 35726U 93036AQX 13281.11551433  .00002167  00000-0  53373-3 0  2344
2 35726 074.0468 078.4995 0046195 242.2903 117.3624 14.52204469229984
0 COSMOS 2251 DEB
1 35726U 93036AQX 13283.73324921  .00004421  00000-0  10710-2 0  2368
2 35726 074.0534 073.5568 0049040 232.1926 127.5285 14.52229488230363
0 COSMOS 2251 DEB
1 35726U 93036AQX 13283.73328417  .00002202  00000-0  54224-3 0  2355
2 35726 074.0475 073.5759 0045595 237.0977 122.5794 14.52217247230360
0 COSMOS 2251 DEB
1 35726U 93036AQX 13285.73098819  .00002454  00000-0  59955-3 0  2374
2 35726 074.0623 069.8000 0054958 229.8169 129.9058 14.52235826230656
0 COSMOS 2251 DEB
1 35726U 93036AQX 13286.07540969  .00002517  00000-0  61648-3 0  2383
2 35726 074.0464 069.1512 0050924 228.0759 131.5894 14.52238712230705
0 COSMOS 2251 DEB
1 35726U 93036AQX 13287.03983677  .00002779  00000-0  68101-3 0  2399
2 35726 074.0497 067.3449 0047813 221.8592 137.9383 14.52249843230844
0 COSMOS 2251 DEB
1 35726U 93036AQX 13289.03754492  .00002924  00000-0  71764-3 0  2405
2 35726 074.0396 063.5877 0043648 214.4316 145.4492 14.52265118231130
0 COSMOS 2251 DEB
1 35726U 93036AQX 13293.03290840  .00004907  00000-0  11937-2 0  2411
2 35726 074.0572 056.0534 0048844 212.1704 148.4243 14.52331531231716
